ONEWEB-0228             
1 48780U 21045P   24157.97419592  .00000101  00000+0  23318-3 0  9995
2 48780  87.9047  46.6810 0001982  82.6360 277.4996 13.15547368146877
